[{"OBJECT_NAME":"STARLINK-35689","OBJECT_ID":"2025-263K","EPOCH":"2026-03-08T20:00:45.499680","MEAN_MOTION":15.27592341,"ECCENTRICITY":2.688e-5,"INCLINATION":42.9976,"RA_OF_ASC_NODE":355.9128,"ARG_OF_PERICENTER":198.9212,"MEAN_ANOMALY":161.1629,"EPHEMERIS_TYPE":0,"CLASSIFICATION_TYPE":"U","NORAD_CAT_ID":66494,"ELEMENT_SET_NO":999,"REV_AT_EPOCH":1876,"BSTAR":0.0012986677,"MEAN_MOTION_DOT":0.00035661,"MEAN_MOTION_DDOT":0},{"OBJECT_NAME":"PELICAN-6","OBJECT_ID":"2025-276AP","EPOCH":"2026-03-09T16:58:12.890496","MEAN_MOTION":15.2637798,"ECCENTRICITY":0.0003569,"INCLINATION":97.4276,"RA_OF_ASC_NODE":144.2072,"ARG_OF_PERICENTER":157.8575,"MEAN_ANOMALY":202.2819,"EPHEMERIS_TYPE":0,"CLASSIFICATION_TYPE":"U","NORAD_CAT_ID":66703,"ELEMENT_SET_NO":999,"REV_AT_EPOCH":1533,"BSTAR":0.0029725783,"MEAN_MOTION_DOT":0.00077979,"MEAN_MOTION_DDOT":0}]
